OBJECT_NAME,OBJECT_ID,EPOCH,MEAN_MOTION,ECCENTRICITY,INCLINATION,RA_OF_ASC_NODE,ARG_OF_PERICENTER,MEAN_ANOMALY,EPHEMERIS_TYPE,CLASSIFICATION_TYPE,NORAD_CAT_ID,ELEMENT_SET_NO,REV_AT_EPOCH,BSTAR,MEAN_MOTION_DOT,MEAN_MOTION_DDOT
ZINYUAN-3,2020-051A,2024-08-14T14:29:17.559744,15.21105635,.0016579,97.3631,302.6344,156.0723,324.3912,0,U,45939,999,22524,-.45311E-3,-.10162E-3,0
EXPRESS 103,2020-053A,2024-08-13T20:21:55.105344,1.00273142,.0000562,0.0075,273.4091,161.0720,290.2553,0,U,45985,999,1490,0,-.27E-5,0
EXPRESS 80,2020-053B,2024-08-12T21:12:53.187552,1.00270021,.000008,0.0051,128.6840,210.9896,20.3261,0,U,45986,999,1489,0,-.124E-5,0
GAOFEN-9 04,2020-054A,2024-08-13T20:13:34.339584,15.22942570,.0004748,97.3277,298.7220,258.0197,102.0508,0,U,46025,999,22361,.76346E-3,.17885E-3,0
STARLINK-1522,2020-055A,2024-08-14T14:04:22.801728,15.06372187,.0001163,53.0511,174.8907,83.6743,276.4378,0,U,46027,999,22265,.12775E-2,.18784E-3,0
STARLINK-1523,2020-055B,2024-08-14T06:27:53.042688,15.06352946,.0001171,53.0529,176.3123,97.0108,263.1014,0,U,46028,999,22262,.11257E-2,.16504E-3,0
STARLINK-1526,2020-055C,2024-08-14T14:14:59.364096,15.06372300,.0001495,53.0528,174.8552,102.5089,257.6067,0,U,46029,999,22266,.42662E-3,.6074E-4,0
STARLINK-1534,2020-055D,2024-08-14T13:05:59.311968,15.06373198,.0001476,53.0545,175.0714,92.4128,267.7030,0,U,46030,999,22261,.45714E-3,.6529E-4,0
STARLINK-1544,2020-055E,2024-08-14T06:33:18.579744,15.06382356,.0001392,53.0528,176.8750,86.0012,274.1136,0,U,46031,999,22259,.11443E-2,.16796E-3,0
STARLINK-1555,2020-055F,2024-08-14T13:53:45.447072,15.06368601,.0001367,53.0522,174.9234,95.9389,264.1755,0,U,46032,999,22266,.44059E-3,.6282E-4,0
STARLINK-1556,2020-055G,2024-08-14T13:27:12.897216,15.06374576,.0001339,53.0531,175.0026,91.1469,268.9674,0,U,46033,999,22263,.10307E-2,.15093E-3,0
STARLINK-1557,2020-055H,2024-08-14T13:32:31.582752,15.06374808,.000139,53.0529,174.9866,92.2609,267.8539,0,U,46034,999,22263,.10194E-2,.14925E-3,0
STARLINK-1558,2020-055J,2024-08-14T05:45:26.267040,15.06373645,.0001495,53.0526,176.4456,90.7895,269.3265,0,U,46035,999,22261,.16986E-2,.25092E-3,0
STARLINK-1560,2020-055K,2024-08-14T13:21:55.083456,15.06420663,.0001166,53.0525,175.0188,105.6171,254.4947,0,U,46036,999,22266,.15536E-2,.22948E-3,0
STARLINK-1565,2020-055L,2024-08-14T13:16:36.325344,15.06370205,.0001383,53.0529,175.0383,102.5349,257.5795,0,U,46037,999,22265,.55243E-3,.795E-4,0
STARLINK-1567,2020-055M,2024-08-14T13:37:49.893312,15.06373003,.0001507,53.0521,174.9729,92.5167,267.5995,0,U,46038,999,22265,.5956E-3,.8595E-4,0
STARLINK-1569,2020-055N,2024-08-14T13:48:27.003456,15.06371061,.0001744,53.0531,174.9393,92.4268,267.6921,0,U,46039,999,22265,.47504E-3,.6796E-4,0
STARLINK-1580,2020-055Q,2024-08-14T13:11:18.975552,15.06359420,.0001389,53.0533,175.1428,96.7475,263.3672,0,U,46041,999,22262,.40405E-3,.5735E-4,0
STARLINK-1581,2020-055R,2024-08-14T14:09:41.552064,15.06368778,.0001461,53.0529,174.8729,98.9571,261.1584,0,U,46042,999,22262,.76234E-3,.11082E-3,0
STARLINK-1582,2020-055S,2024-08-14T13:59:04.098912,15.06376365,.0001561,53.0521,174.9058,86.1859,273.9308,0,U,46043,999,22265,.48583E-3,.6958E-4,0
STARLINK-1591,2020-055U,2024-08-14T06:38:30.684192,15.06368875,.0001671,53.0531,176.2783,86.1419,273.9761,0,U,46045,999,22259,.18833E-2,.27858E-3,0
STARLINK-1524,2020-055W,2024-08-14T13:28:33.061728,15.06365628,.0001214,53.0516,164.9995,111.2950,248.8169,0,U,46047,999,22279,.11275E-2,.16537E-3,0
STARLINK-1527,2020-055X,2024-08-14T13:23:12.820128,15.06377082,.0001915,53.0530,165.0169,93.5000,266.6208,0,U,46048,999,22277,.40106E-3,.5694E-4,0
STARLINK-1540,2020-055AA,2024-08-14T12:35:29.079168,15.06373515,.0001478,53.0543,165.1680,106.4382,253.6770,0,U,46051,999,22280,.26109E-2,.38795E-3,0
STARLINK-1541,2020-055AB,2024-08-14T02:40:59.519136,15.06365278,.0001443,53.0528,167.0181,91.5661,268.5493,0,U,46052,999,22270,.15331E-2,.22606E-3,0
STARLINK-1543,2020-055AC,2024-08-14T05:57:23.057856,15.06358542,.0001402,53.0532,166.4061,91.3422,268.7727,0,U,46053,999,22275,.90487E-3,.13207E-3,0
STARLINK-1548,2020-055AD,2024-08-14T12:30:10.112832,15.06368234,.0001508,53.0547,165.1862,101.0519,259.0640,0,U,46054,999,22279,.10167E-2,.14882E-3,0
STARLINK-1554,2020-055AE,2024-08-14T02:35:40.974432,15.06362925,.0001357,53.0532,167.0352,92.6168,267.4976,0,U,46055,999,22273,.85714E-3,.12496E-3,0
STARLINK-1564,2020-055AH,2024-08-14T06:02:45.398976,15.06378554,.000127,53.0537,166.8554,116.4646,243.6473,0,U,46058,999,22274,.37308E-3,.5277E-4,0
STARLINK-1570,2020-055AJ,2024-08-14T13:07:19.483392,15.06365960,.0001433,53.0530,165.0675,98.1633,261.9519,0,U,46059,999,22275,.16006E-2,.23618E-3,0
