ZINYUAN-3               
1 45939U 20051A   24227.60367546 -.00010162  00000+0 -45311-3 0  9990
2 45939  97.3631 302.6344 0016579 156.0723 324.3912 15.21105635225243
EXPRESS 103             
1 45985U 20053A   24226.84855446 -.00000270  00000+0  00000+0 0  9999
2 45985   0.0075 273.4091 0000562 161.0720 290.2553  1.00273142 14901
EXPRESS 80              
1 45986U 20053B   24225.88394893 -.00000124  00000+0  00000+0 0  9995
2 45986   0.0051 128.6840 0000080 210.9896  20.3261  1.00270021 14891
GAOFEN-9 04             
1 46025U 20054A   24226.84275856  .00017885  00000+0  76346-3 0  9996
2 46025  97.3277 298.7220 0004748 258.0197 102.0508 15.22942570223616
STARLINK-1522           
1 46027U 20055A   24227.58637502  .00018784  00000+0  12775-2 0  9995
2 46027  53.0511 174.8907 0001163  83.6743 276.4378 15.06372187222142
STARLINK-1523           
1 46028U 20055B   24227.26936392  .00016504  00000+0  11257-2 0  9992
2 46028  53.0529 176.3123 0001171  97.0108 263.1014 15.06352946222626
STARLINK-1526           
1 46029U 20055C   24227.59374264  .00006074  00000+0  42662-3 0  9999
2 46029  53.0528 174.8552 0001495 102.5089 257.6067 15.06372300222660
STARLINK-1534           
1 46030U 20055D   24227.54582537  .00006529  00000+0  45714-3 0  9996
2 46030  53.0545 175.0714 0001476  92.4128 267.7030 15.06373198222617
STARLINK-1544           
1 46031U 20055E   24227.27313171  .00016796  00000+0  11443-2 0  9991
2 46031  53.0528 176.8750 0001392  86.0012 274.1136 15.06382356222598
STARLINK-1555           
1 46032U 20055F   24227.57899823  .00006282  00000+0  44059-3 0  9997
2 46032  53.0522 174.9234 0001367  95.9389 264.1755 15.06368601222141
STARLINK-1556           
1 46033U 20055G   24227.56056594  .00015093  00000+0  10307-2 0  9995
2 46033  53.0531 175.0026 0001339  91.1469 268.9674 15.06374576222633
STARLINK-1557           
1 46034U 20055H   24227.56425443  .00014925  00000+0  10194-2 0  9996
2 46034  53.0529 174.9866 0001390  92.2609 267.8539 15.06374808222632
STARLINK-1558           
1 46035U 20055J   24227.23988735  .00025092  00000+0  16986-2 0  9991
2 46035  53.0526 176.4456 0001495  90.7895 269.3265 15.06373645222617
STARLINK-1560           
1 46036U 20055K   24227.55688754  .00022948  00000+0  15536-2 0  9992
2 46036  53.0525 175.0188 0001166 105.6171 254.4947 15.06420663222662
STARLINK-1565           
1 46037U 20055L   24227.55319821  .00007950  00000+0  55243-3 0  9995
2 46037  53.0529 175.0383 0001383 102.5349 257.5795 15.06370205222658
STARLINK-1567           
1 46038U 20055M   24227.56793858  .00008595  00000+0  59560-3 0  9995
2 46038  53.0521 174.9729 0001507  92.5167 267.5995 15.06373003222659
STARLINK-1569           
1 46039U 20055N   24227.57531254  .00006796  00000+0  47504-3 0  9993
2 46039  53.0531 174.9393 0001744  92.4268 267.6921 15.06371061222148
STARLINK-1580           
1 46041U 20055Q   24227.54952518  .00005735  00000+0  40405-3 0  9998
2 46041  53.0533 175.1428 0001389  96.7475 263.3672 15.06359420222621
STARLINK-1581           
1 46042U 20055R   24227.59006426  .00011082  00000+0  76234-3 0  9993
2 46042  53.0529 174.8729 0001461  98.9571 261.1584 15.06368778222151
STARLINK-1582           
1 46043U 20055S   24227.58268633  .00006958  00000+0  48583-3 0  9995
2 46043  53.0521 174.9058 0001561  86.1859 273.9308 15.06376365222144
STARLINK-1591           
1 46045U 20055U   24227.27674403  .00027858  00000+0  18833-2 0  9995
2 46045  53.0531 176.2783 0001671  86.1419 273.9761 15.06368875222107
STARLINK-1524           
1 46047U 20055W   24227.56149377  .00016537  00000+0  11275-2 0  9991
2 46047  53.0516 164.9995 0001214 111.2950 248.8169 15.06365628222289
STARLINK-1527           
1 46048U 20055X   24227.55778727  .00005694  00000+0  40106-3 0  9996
2 46048  53.0530 165.0169 0001915  93.5000 266.6208 15.06377082222286
STARLINK-1540           
1 46051U 20055AA  24227.52464212  .00038795  00000+0  26109-2 0  9992
2 46051  53.0543 165.1680 0001478 106.4382 253.6770 15.06373515222809
STARLINK-1541           
1 46052U 20055AB  24227.11179999  .00022606  00000+0  15331-2 0  9992
2 46052  53.0528 167.0181 0001443  91.5661 268.5493 15.06365278222709
STARLINK-1543           
1 46053U 20055AC  24227.24818354  .00013207  00000+0  90487-3 0  9995
2 46053  53.0532 166.4061 0001402  91.3422 268.7727 15.06358542222756
STARLINK-1548           
1 46054U 20055AD  24227.52095038  .00014882  00000+0  10167-2 0  9999
2 46054  53.0547 165.1862 0001508 101.0519 259.0640 15.06368234222791
STARLINK-1554           
1 46055U 20055AE  24227.10811313  .00012496  00000+0  85714-3 0  9996
2 46055  53.0532 167.0352 0001357  92.6168 267.4976 15.06362925222738
STARLINK-1564           
1 46058U 20055AH  24227.25191434  .00005277  00000+0  37308-3 0  9995
2 46058  53.0537 166.8554 0001270 116.4646 243.6473 15.06378554222741
STARLINK-1570           
1 46059U 20055AJ  24227.54675328  .00023618  00000+0  16006-2 0  9997
2 46059  53.0530 165.0675 0001433  98.1633 261.9519 15.06365960222755
